IRIDIUM 166             
1 43570U 18061B   25215.91803782  .00000032  00000+0  43987-5 0  9998
2 43570  86.4004 189.3051 0002207  93.6056 266.5392 14.34217518367926
IRIDIUM 158             
1 43571U 18061C   25215.67701907  .00000046  00000+0  92204-5 0  9999
2 43571  86.4004 189.4156 0002127  84.5502 275.5936 14.34217602367850
IRIDIUM 165             
1 43572U 18061D   25215.63262155  .00000039  00000+0  69313-5 0  9990
2 43572  86.4005 189.4741 0002347  89.9183 270.2281 14.34217498367870
IRIDIUM 155             
1 43573U 18061E   25215.66433297 -.00000020  00000+0 -14057-4 0  9997
2 43573  86.4007 189.3465 0001841  87.6989 272.4417 14.34217462367845
IRIDIUM 154             
1 43574U 18061F   25216.20345371  .00000034  00000+0  49933-5 0  9999
2 43574  86.4007 189.2387 0002292  87.2817 272.8642 14.34216977367973
IRIDIUM 163             
1 43575U 18061G   25215.90535752  .00000249  00000+0  81944-4 0  9995
2 43575  86.4004 189.2886 0002246  82.6605 277.4846 14.34219859367900
IRIDIUM 156             
1 43576U 18061H   25215.67067601  .00000036  00000+0  58521-5 0  9993
2 43576  86.4003 189.3936 0002013  92.8512 267.2914 14.34217961367869
IRIDIUM 164             
1 43577U 18061J   25215.86095493  .00000000  00000+0 -72174-5 0  9997
2 43577  86.4008 189.3495 0002270  91.6710 268.4746 14.34217110367937
